H1 CPF 01  gfz 2021 11 10 01  8141 terrasarx 
H2 0702601  6201 31698    2021 11 10 00 59 42 2021 11 15 00 00 42   120 1 1  0 0 0
H9
10 0 59531  75582.000000  0   -4926209.184   4577352.826   1489103.854
10 0 59531  75702.000000  0   -4902738.259   4802398.999    595138.175
10 0 59531  75822.000000  0   -4790369.898   4942306.556   -309307.051
10 0 59531  75942.000000  0   -4592631.542   4993143.630  -1208310.044
10 0 59531  76062.000000  0   -4314609.837   4952628.880  -2086063.809
10 0 59531  76182.000000  0   -3962825.490   4820193.180  -2927161.616
10 0 59531  76302.000000  0   -3545081.363   4597005.755  -3716873.706
10 0 59531  76422.000000  0   -3070286.339   4285964.723  -4441406.410
10 0 59531  76542.000000  0   -2548261.924   3891653.987  -5088139.454
10 0 59531  76662.000000  0   -1989537.118   3420269.484  -5645838.588
10 0 59531  76782.000000  0   -1405134.879   2879515.417  -6104842.761
10 0 59531  76902.000000  0    -806354.191   2278471.727  -6457221.302
10 0 59531  77022.000000  0    -204553.305   1627437.728  -6696898.935
10 0 59531  77142.000000  0     389061.618    937755.022  -6819749.962
10 0 59531  77262.000000  0     963639.864    221612.508  -6823662.373
10 0 59531  77382.000000  0    1508880.744   -508165.197  -6708570.659
10 0 59531  77502.000000  0    2015213.562  -1238342.363  -6476455.163
10 0 59531  77622.000000  0    2473961.911  -1955505.833  -6131311.840
10 0 59531  77742.000000  0    2877490.903  -2646305.351  -5679091.072
10 0 59531  77862.000000  0    3219335.486  -3297699.416  -5127607.205
10 0 59531  77982.000000  0    3494307.522  -3897202.785  -4486413.358
10 0 59531  78102.000000  0    3698576.800  -4433126.702  -3766645.199
10 0 59531  78222.000000  0    3829727.455  -4894810.306  -2980838.022
10 0 59531  78342.000000  0    3886788.651  -5272839.678  -2142715.797
10 0 59531  78462.000000  0    3870235.493  -5559247.687  -1266953.356
10 0 59531  78582.000000  0    3781960.869  -5747687.752   -368918.099
10 0 59531  78702.000000  0    3625217.911  -5833578.357    535605.040
10 0 59531  78822.000000  0    3404533.997  -5814213.224   1430698.023
10 0 59531  78942.000000  0    3125599.459  -5688834.490   2300599.590
10 0 59531  79062.000000  0    2795131.253  -5458664.445   3129991.894
10 0 59531  79182.000000  0    2420717.057  -5126898.410   3904276.556
10 0 59531  79302.000000  0    2010644.778  -4698658.339   4609836.359
10 0 59531  79422.000000  0    1573720.382  -4180907.713   5234277.114
10 0 59531  79542.000000  0    1119079.750  -3582330.771   5766645.078
10 0 59531  79662.000000  0     655996.725  -2913177.897   6197616.241
10 0 59531  79782.000000  0     193693.761  -2185082.816   6519652.725
10 0 59531  79902.000000  0    -258840.670  -1410855.864   6727127.457
10 0 59531  80022.000000  0    -693025.330   -604256.925   6816417.462
10 0 59531  80142.000000  0   -1100847.691    220250.575   6785963.867
10 0 59531  80262.000000  0   -1475011.155   1047758.943   6636297.106
10 0 59531  80382.000000  0   -1809065.134   1863184.884   6370027.977
10 0 59531  80502.000000  0   -2097516.746   2651543.557   5991805.150
10 0 59531  80622.000000  0   -2335921.859   3398224.430   5508238.807
10 0 59531  80742.000000  0   -2520954.353   4089264.010   4927791.722
10 0 59531  80862.000000  0   -2650453.318   4711612.066   4260637.891
10 0 59531  80982.000000  0   -2723445.851   5253385.197   3518488.848
10 0 59531  81102.000000  0   -2740144.900   5704102.032   2714389.865
10 0 59531  81222.000000  0   -2701921.976   6054893.792   1862489.898
10 0 59531  81342.000000  0   -2611255.664   6298686.072    977789.450
10 0 59531  81462.000000  0   -2471656.258   6430346.965     75870.715
10 0 59531  81582.000000  0   -2287568.939   6446797.626   -827384.700
10 0 59531  81702.000000  0   -2064258.051   6347082.457  -1716085.527
10 0 59531  81822.000000  0   -1807673.516   6132393.173  -2574622.066
10 0 59531  81942.000000  0   -1524303.998   5806047.320  -3387945.484
10 0 59531  82062.000000  0   -1221022.936   5373428.071  -4141833.030
10 0 59531  82182.000000  0    -904930.242   4841883.805  -4823136.012
10 0 59531  82302.000000  0    -583193.353   4220591.907  -5420003.845
10 0 59531  82422.000000  0    -262890.969   3520390.704  -5922083.296
10 0 59531  82542.000000  0      49137.380   2753581.433  -6320688.985
10 0 59531  82662.000000  0     346431.863   1933706.043  -6608941.654
10 0 59531  82782.000000  0     623040.674   1075307.477  -6781876.001
10 0 59531  82902.000000  0     873634.918    193673.619  -6836517.831
10 0 59531  83022.000000  0    1093607.818   -695430.532  -6771929.436
10 0 59531  83142.000000  0    1279156.686  -1576038.827  -6589222.526
10 0 59531  83262.000000  0    1427347.001  -2432262.511  -6291540.409
10 0 59531  83382.000000  0    1536158.805  -3248569.950  -5884011.196
10 0 59531  83502.000000  0    1604513.476  -4010066.275  -5373670.092
10 0 59531  83622.000000  0    1632280.397  -4702766.311  -4769347.528
10 0 59531  83742.000000  0    1620264.388  -5313853.574  -4081527.034
10 0 59531  83862.000000  0    1570172.844  -5831925.001  -3322174.475
10 0 59531  83982.000000  0    1484562.301  -6247214.082  -2504537.236
10 0 59531  84102.000000  0    1366766.980  -6551786.358  -1642917.157
10 0 59531  84222.000000  0    1220810.092  -6739702.710   -752420.739
10 0 59531  84342.000000  0    1051298.281  -6807145.907    151309.209
10 0 59531  84462.000000  0     863304.102  -6752505.135   1052374.714
10 0 59531  84582.000000  0     662237.611  -6576417.494   1934910.318
10 0 59531  84702.000000  0     453711.604  -6281763.996   2783372.577
10 0 59531  84822.000000  0     243402.794  -5873618.239   3582823.094
10 0 59531  84942.000000  0      36912.372  -5359151.146   4319196.646
10 0 59531  85062.000000  0    -160369.208  -4747496.662   4979551.467
10 0 59531  85182.000000  0    -343390.404  -4049579.374   5552297.193
10 0 59531  85302.000000  0    -507556.324  -3277909.705   6027396.371
10 0 59531  85422.000000  0    -648834.141  -2446349.615   6396535.631
10 0 59531  85542.000000  0    -763843.901  -1569857.615   6653262.981
10 0 59531  85662.000000  0    -849933.086   -664217.751   6793094.703
10 0 59531  85782.000000  0    -905234.167    254245.992   6813590.068
10 0 59531  85902.000000  0    -928703.608   1168964.137   6714391.285
10 0 59531  86022.000000  0    -920140.951   2063420.062   6497229.187
10 0 59531  86142.000000  0    -880188.602   2921447.560   6165894.874
10 0 59531  86262.000000  0    -810312.670   3727523.533   5726177.939
10 0 59531  86382.000000  0    -712764.703   4467051.491   5185770.507
10 0 59532    102.000000  0    -590524.947   5126630.454   4554139.307
10 0 59532    222.000000  0    -447228.473   5694306.464   3842364.811
10 0 59532    342.000000  0    -287074.564   6159796.192   3062950.160
10 0 59532    462.000000  0    -114723.800   6514685.784   2229605.522
10 0 59532    582.000000  0      64818.285   6752594.592   1357001.281
10 0 59532    702.000000  0     246327.531   6869295.931    460504.340
10 0 59532    822.000000  0     424492.907   6862797.280   -444099.443
10 0 59532    942.000000  0     594051.410   6733375.312  -1340892.591
10 0 59532   1062.000000  0     749920.529   6483563.776  -2214114.832
10 0 59532   1182.000000  0     887325.851   6118097.230  -3048446.615
10 0 59532   1302.000000  0    1001921.839   5643811.959  -3829282.174
10 0 59532   1422.000000  0    1089902.339   5069506.616  -4542986.667
10 0 59532   1542.000000  0    1148098.130   4405766.436  -5177131.847
10 0 59532   1662.000000  0    1174059.389   3664756.621  -5720705.819
10 0 59532   1782.000000  0    1166120.978   2859990.705  -6164295.504
10 0 59532   1902.000000  0    1123449.936   2006077.512  -6500238.708
10 0 59532   2022.000000  0    1046074.327   1118454.549  -6722744.276
10 0 59532   2142.000000  0     934893.303    213111.216  -6827982.872
10 0 59532   2262.000000  0     791668.462   -693695.023  -6814145.706
10 0 59532   2382.000000  0     618995.989  -1585724.528  -6681470.942
10 0 59532   2502.000000  0     420260.960  -2447037.815  -6432238.920
10 0 59532   2622.000000  0     199574.070  -3262273.394  -6070739.443
10 0 59532   2742.000000  0     -38309.604  -4016919.667  -5603206.112
10 0 59532   2862.000000  0    -288086.679  -4697572.477  -5037718.429
10 0 59532   2982.000000  0    -544016.205  -5292176.730  -4384073.977
10 0 59532   3102.000000  0    -800043.572  -5790247.570  -3653629.539
10 0 59532   3222.000000  0   -1049934.775  -6183065.594  -2859112.324
10 0 59532   3342.000000  0   -1287418.251  -6463841.402  -2014404.286
10 0 59532   3462.000000  0   -1506331.382  -6627846.248  -1134301.760
10 0 59532   3582.000000  0   -1700767.636  -6672503.306   -234253.844
10 0 59532   3702.000000  0   -1865220.940  -6597436.445    669914.313
10 0 59532   3822.000000  0   -1994723.845  -6404475.042   1562287.440
10 0 59532   3942.000000  0   -2084975.478  -6097614.181   2427149.376
10 0 59532   4062.000000  0   -2132455.559  -5682930.700   3249269.010
10 0 59532   4182.000000  0   -2134521.343  -5168457.310   4014175.704
10 0 59532   4302.000000  0   -2089485.371  -4564019.236   4708418.234
10 0 59532   4422.000000  0   -1996672.797  -3881038.365   5319802.738
10 0 59532   4542.000000  0   -1856457.249  -3132308.122   5837606.731
10 0 59532   4662.000000  0   -1670272.885  -2331744.671   6252762.815
10 0 59532   4782.000000  0   -1440603.436  -1494122.966   6558011.088
10 0 59532   4902.000000  0   -1170949.868   -634800.623   6748020.564
10 0 59532   5022.000000  0    -865777.381    230565.966   6819475.706
10 0 59532   5142.000000  0    -530441.804   1086305.796   6771130.481
10 0 59532   5262.000000  0    -171095.471   1917016.552   6603829.360
10 0 59532   5382.000000  0     205425.528   2707841.530   6320493.377
10 0 59532   5502.000000  0     591730.472   3444735.161   5926072.029
10 0 59532   5622.000000  0     980017.192   4114714.543   5427462.332
99
